*******************************************************************************
 Revised: April 12, 2021               Jupiter                              599
 
 PHYSICAL DATA:
  Mass x 10^22 (g)      = 189818722 +- 8817 Density (g/cm^3)  = 1.3262 +- .0003
  Equat. radius (1 bar) = 71492+-4 km       Polar radius (km)     = 66854+-10
  Vol. Mean Radius (km) = 69911+-6          Flattening            = 0.06487
  Geometric Albedo      = 0.52              Rocky core mass (Mc/M)= 0.0261
  Sid. rot. period (III)= 9h 55m 29.71 s    Sid. rot. rate (rad/s)= 0.00017585
  Mean solar day, hrs   = ~9.9259         
  GM (km^3/s^2)         = 126686531.900     GM 1-sigma (km^3/s^2) =  +- 1.2732
  Equ. grav, ge (m/s^2) = 24.79             Pol. grav, gp (m/s^2) =  28.34
  Vis. magnitude V(1,0) = -9.40
  Vis. mag. (opposition)= -2.70             Obliquity to orbit    =  3.13 deg
  Sidereal orbit period = 11.861982204 y    Sidereal orbit period = 4332.589 d
  Mean daily motion     = 0.0831294 deg/d   Mean orbit speed, km/s= 13.0697
  Atmos. temp. (1 bar)  = 165+-5 K          Escape speed, km/s    =  59.5           
  A_roche(ice)/Rp       =  2.76             Hill's sphere rad. Rp = 740
                                 Perihelion   Aphelion     Mean
  Solar Constant (W/m^2)         56           46           51
  Maximum Planetary IR (W/m^2)   13.7         13.4         13.6
  Minimum Planetary IR (W/m^2)   13.7         13.4         13.6
*******************************************************************************


*******************************************************************************
Ephemeris / WWW_USER Mon May 20 07:53:17 2024 Pasadena, USA      / Horizons    
*******************************************************************************
Target body name: Jupiter (599)                   {source: jup365_merged}
Center body name: Sun (10)                        {source: jup365_merged}
Center-site name: BODYCENTRIC
*******************************************************************************
Start time      : A.D. 1900-Jan-01 00:00:00.0000 UT      
Stop  time      : A.D. 2200-Jan-01 00:00:00.0000 UT      
Step-size       : 1 calendar month
*******************************************************************************
Target pole/equ : IAU_JUPITER                     {West-longitude positive}
Target radii    : 71492.0, 71492.0, 66854.0 km    {Equator_a, b, pole_c}       
Center geodetic : 0.0, 0.0, -695700.0             {E-lon(deg),Lat(deg),Alt(km)}
Center cylindric: 0.0, 0.0, 0.0                   {E-lon(deg),Dxy(km),Dz(km)}
Center pole/equ : IAU_SUN                         {East-longitude positive}
Center radii    : 695700.0, 695700.0, 695700.0 km {Equator_a, b, pole_c}       
Target primary  : Sun
Vis. interferer : None
Rel. light bend : Sun                             {source: jup365_merged}
Rel. lght bnd GM: 1.3271E+11 km^3/s^2                                          
Atmos refraction: NO (AIRLESS)
RA format       : DEG
Time format     : CAL 
Calendar mode   : Mixed Julian/Gregorian
EOP file        : eop.240517.p240810                                           
EOP coverage    : DATA-BASED 1962-JAN-20 TO 2024-MAY-17. PREDICTS-> 2024-AUG-09
Units conversion: 1 au= 149597870.700 km, c= 299792.458 km/s, 1 day= 86400.0 s 
Table cut-offs 1: Elevation (-90.0deg=NO ),Airmass     n.a.    , Daylight (NO )
Table cut-offs 2: Solar elongation (  0.0,180.0=NO ),Local Hour Angle( 0.0=NO )
Table cut-offs 3: RA/DEC angular rate (     0.0=NO )                           
Table format    : Comma Separated Values (spreadsheet)
*******************************************************************************
 Date__(UT)__HR:MN, , , hEcl-Lon,hEcl-Lat,      PlAng,  Tru_Anom,  App_Lon_Sun,
*******************************************************************************
$$SOE
 1996-Apr-01 00:00, , , 275.0199,  0.1239,    0.00028,  260.5317,  317.7983007,
 1996-May-01 00:00, , , 277.4814,  0.0680,    0.00028,  263.1345,  320.2589692,
 1996-Jun-01 00:00, , , 280.0357,  0.0099,    0.00029,  265.1361,  322.8191634,
 1996-Jul-01 00:00, , , 282.5182, -0.0466,    0.00030,  267.7008,  325.3012065,
 1996-Aug-01 00:00, , , 285.0943, -0.1052,    0.00030,  270.7656,  327.8743048,
 1996-Sep-01 00:00, , , 287.6818, -0.1638,    0.00031,  273.0653,  330.4640521,
 1996-Oct-01 00:00, , , 290.1966, -0.2204,    0.00032,  275.4115,  332.9809865,
 1996-Nov-01 00:00, , , 292.8064, -0.2788,    0.00032,  278.1261,  335.5916576,
 1996-Dec-01 00:00, , , 295.3430, -0.3349,    0.00033,  280.9214,  338.1262655,
 1997-Jan-01 00:00, , , 297.9753, -0.3925,    0.00033,  283.2600,  340.7605405,
 1997-Feb-01 00:00, , , 300.6191, -0.4495,    0.00034,  285.9666,  343.4048818,
 1997-Mar-01 00:00, , , 303.0168, -0.5003,    0.00035,  288.2889,  345.8037496,
 1997-Apr-01 00:00, , , 305.6821, -0.5558,    0.00035,  290.9179,  348.4695060,
 1997-May-01 00:00, , , 308.2722, -0.6086,    0.00036,  293.5328,  351.0594884,
 1997-Jun-01 00:00, , , 310.9595, -0.6620,    0.00036,  296.2636,  353.7469079,
 1997-Jul-01 00:00, , , 313.5705, -0.7125,    0.00037,  298.7992,  356.3585487,
 1997-Aug-01 00:00, , , 316.2791, -0.7634,    0.00037,  301.5455,  359.0673597,
 1997-Sep-01 00:00, , , 318.9983, -0.8127,    0.00038,  304.4423,    1.7868921,
 1997-Oct-01 00:00, , , 321.6395, -0.8589,    0.00038,  306.7399,    4.4279076,
 1997-Nov-01 00:00, , , 324.3787, -0.9048,    0.00038,  309.3364,    7.1667294,
 1997-Dec-01 00:00, , , 327.0388, -0.9475,    0.00039,  312.2382,    9.8278896,
 1998-Jan-01 00:00, , , 329.7967, -0.9895,    0.00039,  314.9637,   12.5859768,
 1998-Feb-01 00:00, , , 332.5637, -1.0294,    0.00040,  317.5162,   15.3517034,
 1998-Mar-01 00:00, , , 335.0704, -1.0635,    0.00040,  320.0597,   17.8587249,
 1998-Apr-01 00:00, , , 337.8535, -1.0989,    0.00040,  322.7527,   20.6397772,
 1998-May-01 00:00, , , 340.5543, -1.1309,    0.00041,  325.5076,   23.3415424,
 1998-Jun-01 00:00, , , 343.3524, -1.1613,    0.00041,  328.4114,   26.1425791,
 1998-Jul-01 00:00, , , 346.0669, -1.1881,    0.00041,  330.9510,   28.8541020,
 1998-Aug-01 00:00, , , 348.8781, -1.2131,    0.00041,  333.6978,   31.6631322,
 1998-Sep-01 00:00, , , 351.6952, -1.2353,    0.00041,  336.6133,   34.4842337,
 1998-Oct-01 00:00, , , 354.4264, -1.2539,    0.00041,  339.1214,   37.2112804,
 1998-Nov-01 00:00, , , 357.2533, -1.2701,    0.00041,  341.8514,   40.0339198,
 1998-Dec-01 00:00, , , 359.9930, -1.2829,    0.00042,  344.6375,   42.7748288,
 1999-Jan-01 00:00, , ,   2.8275, -1.2931,    0.00042,  347.5451,   45.6147311,
 1999-Feb-01 00:00, , ,   5.6649, -1.3001,    0.00042,  350.1543,   48.4432040,
 1999-Mar-01 00:00, , ,   8.2298, -1.3037,    0.00042,  352.5811,   51.0060619,
 1999-Apr-01 00:00, , ,  11.0710, -1.3046,    0.00042,  355.5814,   53.8512634,
 1999-May-01 00:00, , ,  13.8215, -1.3025,    0.00042,  358.4137,   56.6068649,
 1999-Jun-01 00:00, , ,  16.6642, -1.2971,    0.00042,    0.9934,   59.4417469,
 1999-Jul-01 00:00, , ,  19.4149, -1.2889,    0.00042,    3.6249,   62.1869734,
 1999-Aug-01 00:00, , ,  22.2565, -1.2773,    0.00041,    6.7028,   65.0349112,
 1999-Sep-01 00:00, , ,  25.0966, -1.2625,    0.00041,    9.2575,   67.8693628,
 1999-Oct-01 00:00, , ,  27.8430, -1.2453,    0.00041,   11.8429,   70.6137855,
 1999-Nov-01 00:00, , ,  30.6782, -1.2245,    0.00041,   14.9127,   73.4529437,
 1999-Dec-01 00:00, , ,  33.4186, -1.2016,    0.00041,   17.6687,   76.1941898,
 2000-Jan-01 00:00, , ,  36.2465, -1.1751,    0.00040,   20.2487,   79.0180161,
 2000-Feb-01 00:00, , ,  39.0697, -1.1457,    0.00040,   23.1521,   81.8374664,
 2000-Mar-01 00:00, , ,  41.7060, -1.1158,    0.00040,   25.5534,   84.4696157,
 2000-Apr-01 00:00, , ,  44.5185, -1.0813,    0.00040,   28.6248,   87.2888999,
 2000-May-01 00:00, , ,  47.2344, -1.0455,    0.00039,   31.2610,   90.0072464,
 2000-Jun-01 00:00, , ,  50.0340, -1.0062,    0.00039,   33.8149,   92.7989893,
 2000-Jul-01 00:00, , ,  52.7364, -0.9659,    0.00038,   36.4901,   95.4976356,
 2000-Aug-01 00:00, , ,  55.5212, -0.9222,    0.00038,   39.5362,   98.2884628,
 2000-Sep-01 00:00, , ,  58.2977, -0.8764,    0.00037,   41.8953,  101.0587138,
 2000-Oct-01 00:00, , ,  60.9764, -0.8303,    0.00037,   44.5084,  103.7362327,
 2000-Nov-01 00:00, , ,  63.7354, -0.7809,    0.00036,   47.7481,  106.5015721,
 2000-Dec-01 00:00, , ,  66.3965, -0.7315,    0.00036,   50.3138,  109.1617497,
 2001-Jan-01 00:00, , ,  69.1367, -0.6791,    0.00035,   52.6832,  111.8982624,
 2001-Feb-01 00:00, , ,  71.8668, -0.6253,    0.00035,   55.7268,  114.6265245,
 2001-Mar-01 00:00, , ,  74.3238, -0.5756,    0.00034,   57.9345,  117.0797550,
 2001-Apr-01 00:00, , ,  77.0339, -0.5196,    0.00033,   60.8425,  119.7999044,
 2001-May-01 00:00, , ,  79.6463, -0.4646,    0.00033,   63.5828,  122.4157568,
 2001-Jun-01 00:00, , ,  82.3350, -0.4069,    0.00032,   65.9857,  125.0921597,
 2001-Jul-01 00:00, , ,  84.9262, -0.3504,    0.00032,   68.5750,  127.6835877,
 2001-Aug-01 00:00, , ,  87.5928, -0.2916,    0.00031,   71.4864,  130.3598932,
 2001-Sep-01 00:00, , ,  90.2479, -0.2324,    0.00030,   73.7386,  133.0079740,
 2001-Oct-01 00:00, , ,  92.8065, -0.1749,    0.00029,   76.4087,  135.5678410,
 2001-Nov-01 00:00, , ,  95.4391, -0.1153,    0.00028,   79.4661,  138.2072569,
 2001-Dec-01 00:00, , ,  97.9757, -0.0577,    0.00028,   81.9946,  140.7452751,
 2002-Jan-01 00:00, , , 100.5855,  0.0017,    0.00027,   84.1969,  143.3480401,
 2002-Feb-01 00:00, , , 103.1838,  0.0608,    0.00026,   86.9612,  145.9491145,
 2002-Mar-01 00:00, , , 105.5207,  0.1138,    0.00025,   89.3627,  148.2876208,
 2002-Apr-01 00:00, , , 108.0972,  0.1721,    0.00025,   91.9745,  150.8660164,
 2002-May-01 00:00, , , 110.5799,  0.2280,    0.00024,   94.4241,  153.3488794,
 2002-Jun-01 00:00, , , 113.1343,  0.2850,    0.00023,   96.9460,  155.9026890,
 2002-Jul-01 00:00, , , 115.5958,  0.3394,    0.00022,   99.5918,  158.3654007,
 2002-Aug-01 00:00, , , 118.1285,  0.3947,    0.00021,  102.0115,  160.8988682,
